GOMX-1                  
1 39430U 13066Q   22231.01520812  .00000577  00000+0  11149-3 0  9991
2 39430  97.8046 134.6341 0148122 207.1994 152.1400 14.60306827465428
CUBEBUG-2 (LO-74)       
1 39440U 13066AA  22230.43917981  .00001611  00000+0  22396-3 0  9990
2 39440  97.7300 185.4091 0077020 290.9406  68.3575 14.77185025470636
FUNCUBE-1 (AO-73)       
1 39444U 13066AE  22230.63850385  .00001567  00000+0  19107-3 0  9996
2 39444  97.6293 201.7659 0056103 186.9234 173.1212 14.83630713470745
UWE-3                   
1 39446U 13066AG  22230.69188433  .00001229  00000+0  16430-3 0  9993
2 39446  97.6901 192.0878 0066919 245.9284 113.4917 14.79742191469662
SPROUT                  
1 39770U 14029E   22231.12163167  .00005186  00000+0  52331-3 0  9995
2 39770  97.9488 348.4922 0007171 237.0003 123.0501 14.91514508447001
UNISAT-6                
1 40012U 14033C   22231.06745765  .00001042  00000+0  15831-3 0  9995
2 40012  97.6632  55.6919 0056359 317.4163  42.2683 14.75031110439217
DUCHIFAT-1              
1 40021U 14033M   22231.13679144  .00003708  00000+0  36026-3 0  9990
2 40021  98.0152 182.5014 0012104 186.3875 173.7191 14.93192672444051
QB50P1                  
1 40025U 14033R   22230.35031533  .00001979  00000+0  20726-3 0  9999
2 40025  97.9613 168.2458 0011244 206.9654 153.0980 14.90719945443495
NUDT-PHONESAT           
1 40900U 15049B   22231.19623850  .00023552  00000+0  61635-3 0  9996
2 40900  97.3984 249.6186 0010770  70.1784 354.1780 15.38671873384252
ZDPS 2A                 
1 40901U 15049C   22230.71982028  .00011707  00000+0  46923-3 0  9991
2 40901  97.4602 239.2542 0013386 122.6183 237.6348 15.25095785382941
ZDPS 2B                 
1 40902U 15049D   22231.21902870  .00009078  00000+0  36193-3 0  9991
2 40902  97.4680 237.5118 0013270 118.3930  12.2465 15.25347976382996
XW-2A                   
1 40903U 15049E   22231.21225838  .00019408  00000+0  28200-3 0  9992
2 40903  97.1733 289.9190 0007684 239.3795 169.6002 15.55796999389019
KAITUO 1A               
1 40904U 15049F   22231.24679692  .00004856  00000+0  23936-3 0  9999
2 40904  97.4960 233.1816 0014646 145.6858 275.5488 15.18322141382398
2015-049G               
1 40905U 15049G   22231.25063722  .00002649  00000+0  13779-3 0  9994
2 40905  97.5162 230.3937 0015666 149.5135 274.4395 15.16828285382136
XW-2C                   
1 40906U 15049H   22231.23680150  .00003926  00000+0  18721-3 0  9994
2 40906  97.4945 234.1726 0015002 134.9743 353.8020 15.19589359382451
XW-2D                   
1 40907U 15049J   22231.15414538  .00004587  00000+0  21368-3 0  9996
2 40907  97.4938 234.1286 0014429 130.7354 294.4891 15.20315134382499
LILACSAT-2              
1 40908U 15049K   22231.12705641  .00002372  00000+0  12640-3 0  9995
2 40908  97.5182 231.1071 0015825 153.8616 271.1153 15.16084388381984
