[{"OBJECT_NAME":"GOMX-1","OBJECT_ID":"2013-066Q","EPOCH":"2022-08-19T00:21:53.981568","MEAN_MOTION":14.60306827,"ECCENTRICITY":0.0148122,"INCLINATION":97.8046,"RA_OF_ASC_NODE":134.6341,"ARG_OF_PERICENTER":207.1994,"MEAN_ANOMALY":152.14,"EPHEMERIS_TYPE":0,"CLASSIFICATION_TYPE":"U","NORAD_CAT_ID":39430,"ELEMENT_SET_NO":999,"REV_AT_EPOCH":46542,"BSTAR":0.00011149,"MEAN_MOTION_DOT":5.77e-6,"MEAN_MOTION_DDOT":0},{"OBJECT_NAME":"CUBEBUG-2 (LO-74)","OBJECT_ID":"2013-066AA","EPOCH":"2022-08-18T10:32:25.135584","MEAN_MOTION":14.77185025,"ECCENTRICITY":0.007702,"INCLINATION":97.73,"RA_OF_ASC_NODE":185.4091,"ARG_OF_PERICENTER":290.9406,"MEAN_ANOMALY":68.3575,"EPHEMERIS_TYPE":0,"CLASSIFICATION_TYPE":"U","NORAD_CAT_ID":39440,"ELEMENT_SET_NO":999,"REV_AT_EPOCH":47063,"BSTAR":0.00022396,"MEAN_MOTION_DOT":1.611e-5,"MEAN_MOTION_DDOT":0},{"OBJECT_NAME":"FUNCUBE-1 (AO-73)","OBJECT_ID":"2013-066AE","EPOCH":"2022-08-18T15:19:26.732640","MEAN_MOTION":14.83630713,"ECCENTRICITY":0.0056103,"INCLINATION":97.6293,"RA_OF_ASC_NODE":201.7659,"ARG_OF_PERICENTER":186.9234,"MEAN_ANOMALY":173.1212,"EPHEMERIS_TYPE":0,"CLASSIFICATION_TYPE":"U","NORAD_CAT_ID":39444,"ELEMENT_SET_NO":999,"REV_AT_EPOCH":47074,"BSTAR":0.00019107,"MEAN_MOTION_DOT":1.567e-5,"MEAN_MOTION_DDOT":0},{"OBJECT_NAME":"UWE-3","OBJECT_ID":"2013-066AG","EPOCH":"2022-08-18T16:36:18.806112","MEAN_MOTION":14.79742191,"ECCENTRICITY":0.0066919,"INCLINATION":97.6901,"RA_OF_ASC_NODE":192.0878,"ARG_OF_PERICENTER":245.9284,"MEAN_ANOMALY":113.4917,"EPHEMERIS_TYPE":0,"CLASSIFICATION_TYPE":"U","NORAD_CAT_ID":39446,"ELEMENT_SET_NO":999,"REV_AT_EPOCH":46966,"BSTAR":0.0001643,"MEAN_MOTION_DOT":1.229e-5,"MEAN_MOTION_DDOT":0},{"OBJECT_NAME":"SPROUT","OBJECT_ID":"2014-029E","EPOCH":"2022-08-19T02:55:08.976288","MEAN_MOTION":14.91514508,"ECCENTRICITY":0.0007171,"INCLINATION":97.9488,"RA_OF_ASC_NODE":348.4922,"ARG_OF_PERICENTER":237.0003,"MEAN_ANOMALY":123.0501,"EPHEMERIS_TYPE":0,"CLASSIFICATION_TYPE":"U","NORAD_CAT_ID":39770,"ELEMENT_SET_NO":999,"REV_AT_EPOCH":44700,"BSTAR":0.00052331,"MEAN_MOTION_DOT":5.186e-5,"MEAN_MOTION_DDOT":0},{"OBJECT_NAME":"UNISAT-6","OBJECT_ID":"2014-033C","EPOCH":"2022-08-19T01:37:08.340960","MEAN_MOTION":14.7503111,"ECCENTRICITY":0.0056359,"INCLINATION":97.6632,"RA_OF_ASC_NODE":55.6919,"ARG_OF_PERICENTER":317.4163,"MEAN_ANOMALY":42.2683,"EPHEMERIS_TYPE":0,"CLASSIFICATION_TYPE":"U","NORAD_CAT_ID":40012,"ELEMENT_SET_NO":999,"REV_AT_EPOCH":43921,"BSTAR":0.00015831,"MEAN_MOTION_DOT":1.042e-5,"MEAN_MOTION_DDOT":0},{"OBJECT_NAME":"DUCHIFAT-1","OBJECT_ID":"2014-033M","EPOCH":"2022-08-19T03:16:58.780416","MEAN_MOTION":14.93192672,"ECCENTRICITY":0.0012104,"INCLINATION":98.0152,"RA_OF_ASC_NODE":182.5014,"ARG_OF_PERICENTER":186.3875,"MEAN_ANOMALY":173.7191,"EPHEMERIS_TYPE":0,"CLASSIFICATION_TYPE":"U","NORAD_CAT_ID":40021,"ELEMENT_SET_NO":999,"REV_AT_EPOCH":44405,"BSTAR":0.00036026,"MEAN_MOTION_DOT":3.708e-5,"MEAN_MOTION_DDOT":0},{"OBJECT_NAME":"QB50P1","OBJECT_ID":"2014-033R","EPOCH":"2022-08-18T08:24:27.244512","MEAN_MOTION":14.90719945,"ECCENTRICITY":0.0011244,"INCLINATION":97.9613,"RA_OF_ASC_NODE":168.2458,"ARG_OF_PERICENTER":206.9654,"MEAN_ANOMALY":153.098,"EPHEMERIS_TYPE":0,"CLASSIFICATION_TYPE":"U","NORAD_CAT_ID":40025,"ELEMENT_SET_NO":999,"REV_AT_EPOCH":44349,"BSTAR":0.00020726,"MEAN_MOTION_DOT":1.979e-5,"MEAN_MOTION_DDOT":0},{"OBJECT_NAME":"NUDT-PHONESAT","OBJECT_ID":"2015-049B","EPOCH":"2022-08-19T04:42:35.006400","MEAN_MOTION":15.38671873,"ECCENTRICITY":0.001077,"INCLINATION":97.3984,"RA_OF_ASC_NODE":249.6186,"ARG_OF_PERICENTER":70.1784,"MEAN_ANOMALY":354.178,"EPHEMERIS_TYPE":0,"CLASSIFICATION_TYPE":"U","NORAD_CAT_ID":40900,"ELEMENT_SET_NO":999,"REV_AT_EPOCH":38425,"BSTAR":0.00061635,"MEAN_MOTION_DOT":0.00023552,"MEAN_MOTION_DDOT":0},{"OBJECT_NAME":"ZDPS 2A","OBJECT_ID":"2015-049C","EPOCH":"2022-08-18T17:16:32.472192","MEAN_MOTION":15.25095785,"ECCENTRICITY":0.0013386,"INCLINATION":97.4602,"RA_OF_ASC_NODE":239.2542,"ARG_OF_PERICENTER":122.6183,"MEAN_ANOMALY":237.6348,"EPHEMERIS_TYPE":0,"CLASSIFICATION_TYPE":"U","NORAD_CAT_ID":40901,"ELEMENT_SET_NO":999,"REV_AT_EPOCH":38294,"BSTAR":0.00046923,"MEAN_MOTION_DOT":0.00011707,"MEAN_MOTION_DDOT":0},{"OBJECT_NAME":"ZDPS 2B","OBJECT_ID":"2015-049D","EPOCH":"2022-08-19T05:15:24.079680","MEAN_MOTION":15.25347976,"ECCENTRICITY":0.001327,"INCLINATION":97.468,"RA_OF_ASC_NODE":237.5118,"ARG_OF_PERICENTER":118.393,"MEAN_ANOMALY":12.2465,"EPHEMERIS_TYPE":0,"CLASSIFICATION_TYPE":"U","NORAD_CAT_ID":40902,"ELEMENT_SET_NO":999,"REV_AT_EPOCH":38299,"BSTAR":0.00036193,"MEAN_MOTION_DOT":9.078e-5,"MEAN_MOTION_DDOT":0},{"OBJECT_NAME":"XW-2A","OBJECT_ID":"2015-049E","EPOCH":"2022-08-19T05:05:39.124032","MEAN_MOTION":15.55796999,"ECCENTRICITY":0.0007684,"INCLINATION":97.1733,"RA_OF_ASC_NODE":289.919,"ARG_OF_PERICENTER":239.3795,"MEAN_ANOMALY":169.6002,"EPHEMERIS_TYPE":0,"CLASSIFICATION_TYPE":"U","NORAD_CAT_ID":40903,"ELEMENT_SET_NO":999,"REV_AT_EPOCH":38901,"BSTAR":0.000282,"MEAN_MOTION_DOT":0.00019408,"MEAN_MOTION_DDOT":0},{"OBJECT_NAME":"KAITUO 1A","OBJECT_ID":"2015-049F","EPOCH":"2022-08-19T05:55:23.253888","MEAN_MOTION":15.18322141,"ECCENTRICITY":0.0014646,"INCLINATION":97.496,"RA_OF_ASC_NODE":233.1816,"ARG_OF_PERICENTER":145.6858,"MEAN_ANOMALY":275.5488,"EPHEMERIS_TYPE":0,"CLASSIFICATION_TYPE":"U","NORAD_CAT_ID":40904,"ELEMENT_SET_NO":999,"REV_AT_EPOCH":38239,"BSTAR":0.00023936,"MEAN_MOTION_DOT":4.856e-5,"MEAN_MOTION_DDOT":0},{"OBJECT_NAME":"2015-049G","OBJECT_ID":"2015-049G","EPOCH":"2022-08-19T06:00:55.055808","MEAN_MOTION":15.16828285,"ECCENTRICITY":0.0015666,"INCLINATION":97.5162,"RA_OF_ASC_NODE":230.3937,"ARG_OF_PERICENTER":149.5135,"MEAN_ANOMALY":274.4395,"EPHEMERIS_TYPE":0,"CLASSIFICATION_TYPE":"U","NORAD_CAT_ID":40905,"ELEMENT_SET_NO":999,"REV_AT_EPOCH":38213,"BSTAR":0.00013779,"MEAN_MOTION_DOT":2.649e-5,"MEAN_MOTION_DDOT":0},{"OBJECT_NAME":"XW-2C","OBJECT_ID":"2015-049H","EPOCH":"2022-08-19T05:40:59.649600","MEAN_MOTION":15.19589359,"ECCENTRICITY":0.0015002,"INCLINATION":97.4945,"RA_OF_ASC_NODE":234.1726,"ARG_OF_PERICENTER":134.9743,"MEAN_ANOMALY":353.802,"EPHEMERIS_TYPE":0,"CLASSIFICATION_TYPE":"U","NORAD_CAT_ID":40906,"ELEMENT_SET_NO":999,"REV_AT_EPOCH":38245,"BSTAR":0.00018721,"MEAN_MOTION_DOT":3.926e-5,"MEAN_MOTION_DDOT":0},{"OBJECT_NAME":"XW-2D","OBJECT_ID":"2015-049J","EPOCH":"2022-08-19T03:41:58.160832","MEAN_MOTION":15.20315134,"ECCENTRICITY":0.0014429,"INCLINATION":97.4938,"RA_OF_ASC_NODE":234.1286,"ARG_OF_PERICENTER":130.7354,"MEAN_ANOMALY":294.4891,"EPHEMERIS_TYPE":0,"CLASSIFICATION_TYPE":"U","NORAD_CAT_ID":40907,"ELEMENT_SET_NO":999,"REV_AT_EPOCH":38249,"BSTAR":0.00021368,"MEAN_MOTION_DOT":4.587e-5,"MEAN_MOTION_DDOT":0},{"OBJECT_NAME":"LILACSAT-2","OBJECT_ID":"2015-049K","EPOCH":"2022-08-19T03:02:57.673824","MEAN_MOTION":15.16084388,"ECCENTRICITY":0.0015825,"INCLINATION":97.5182,"RA_OF_ASC_NODE":231.1071,"ARG_OF_PERICENTER":153.8616,"MEAN_ANOMALY":271.1153,"EPHEMERIS_TYPE":0,"CLASSIFICATION_TYPE":"U","NORAD_CAT_ID":40908,"ELEMENT_SET_NO":999,"REV_AT_EPOCH":38198,"BSTAR":0.0001264,"MEAN_MOTION_DOT":2.372e-5,"MEAN_MOTION_DDOT":0}]